{"type": "FeatureCollection", "features": [ {"type": "Feature", "properties": {"norad_id": 38552, "name": "METEOSAT-10 (MSG-3)", "group": "weather", "lat": -0.5580219307301855, "lon": 53.77532914543537, "alt_km": 35788.101060128465, "timestamp": "2025-12-03T22:42:32.302243+00:00", "meta": {"OBJECT_NAME": "METEOSAT-10 (MSG-3)", "OBJECT_ID": "2012-035B", "EPOCH": "2025-12-03T01:46:14.361312", "MEAN_MOTION": 1.00272334, "ECCENTRICITY": 7.5e-05, "INCLINATION": 4.2044, "RA_OF_ASC_NODE": 61.7366, "ARG_OF_PERICENTER": 219.9554, "MEAN_ANOMALY": 177.1386, "EPHEMERIS_TYPE": 0, "CLASSIFICATION_TYPE": "U", "NORAD_CAT_ID": 38552, "ELEMENT_SET_NO": 999, "REV_AT_EPOCH": 4889, "BSTAR": 0, "MEAN_MOTION_DOT": 1.1e-07, "MEAN_MOTION_DDOT": 0}, "tle": {"line1": "1 38552U 12035B   25337.07377733  .00000011  00000+0  00000+0 0  9991", "line2": "2 38552   4.2044  61.7366 0000750 219.9554 177.1386  1.00272334 48899"}}, "geometry": {"type": "Point", "coordinates": [53.77532914543537, -0.5580219307301855]}}, {"type": "Feature", "properties": {"norad_id": 38771, "name": "METOP-B", "group": "weather", "lat": 62.5001177417619, "lon": -134.87894237723702, "alt_km": 813.2792374436431, "timestamp": "2025-12-03T22:42:32.302253+00:00", "meta": {"OBJECT_NAME": "METOP-B", "OBJECT_ID": "2012-049A", "EPOCH": "2025-12-03T10:20:18.292128", "MEAN_MOTION": 14.21402737, "ECCENTRICITY": 0.0002494, "INCLINATION": 98.6813, "RA_OF_ASC_NODE": 27.5468, "ARG_OF_PERICENTER": 165.2397, "MEAN_ANOMALY": 194.8854, "EPHEMERIS_TYPE": 0, "CLASSIFICATION_TYPE": "U", "NORAD_CAT_ID": 38771, "ELEMENT_SET_NO": 999, "REV_AT_EPOCH": 68545, "BSTAR": 0.00012743, "MEAN_MOTION_DOT": 2.35e-06, "MEAN_MOTION_DDOT": 0}, "tle": {"line1": "1 38771U 12049A   25337.43076727  .00000235  00000+0  12743-3 0  9997", "line2": "2 38771  98.6813  27.5468 0002494 165.2397 194.8854 14.21402737685455"}}, "geometry": {"type": "Point", "coordinates": [-134.87894237723702, 62.5001177417619]}}, {"type": "Feature", "properties": {"norad_id": 39216, "name": "INSAT-3D", "group": "weather", "lat": 1.3886262139381094, "lon": -176.85176712794848, "alt_km": 35781.343899817875, "timestamp": "2025-12-03T22:42:32.302264+00:00", "meta": {"OBJECT_NAME": "INSAT-3D", "OBJECT_ID": "2013-038B", "EPOCH": "2025-12-03T10:56:51.856800", "MEAN_MOTION": 1.00273796, "ECCENTRICITY": 0.0001753, "INCLINATION": 1.4189, "RA_OF_ASC_NODE": 85.096, "ARG_OF_PERICENTER": 154.7686, "MEAN_ANOMALY": 126.4141, "EPHEMERIS_TYPE": 0, "CLASSIFICATION_TYPE": "U", "NORAD_CAT_ID": 39216, "ELEMENT_SET_NO": 999, "REV_AT_EPOCH": 4511, "BSTAR": 0, "MEAN_MOTION_DOT": -3.21e-06, "MEAN_MOTION_DDOT": 0}, "tle": {"line1": "1 39216U 13038B   25337.45615575 -.00000321  00000+0  00000+0 0  9999", "line2": "2 39216   1.4189  85.0960 0001753 154.7686 126.4141  1.00273796 45112"}}, "geometry": {"type": "Point", "coordinates": [-176.85176712794848, 1.3886262139381094]}}, {"type": "Feature", "properties": {"norad_id": 39260, "name": "FENGYUN 3C", "group": "weather", "lat": -3.8749250940038085, "lon": 135.47663001637073, "alt_km": 835.5716715146182, "timestamp": "2025-12-03T22:42:32.302274+00:00", "meta": {"OBJECT_NAME": "FENGYUN 3C", "OBJECT_ID": "2013-052A", "EPOCH": "2025-12-03T13:21:40.702176", "MEAN_MOTION": 14.15691663, "ECCENTRICITY": 0.0013833, "INCLINATION": 98.4754, "RA_OF_ASC_NODE": 315.6849, "ARG_OF_PERICENTER": 223.656, "MEAN_ANOMALY": 136.3522, "EPHEMERIS_TYPE": 0, "CLASSIFICATION_TYPE": "U", "NORAD_CAT_ID": 39260, "ELEMENT_SET_NO": 999, "REV_AT_EPOCH": 63088, "BSTAR": 0.00011685, "MEAN_MOTION_DOT": 1.88e-06, "MEAN_MOTION_DDOT": 0}, "tle": {"line1": "1 39260U 13052A   25337.55672109  .00000188  00000+0  11685-3 0  9996", "line2": "2 39260  98.4754 315.6849 0013833 223.6560 136.3522 14.15691663630886"}}, "geometry": {"type": "Point", "coordinates": [135.47663001637073, -3.8749250940038085]}}, {"type": "Feature", "properties": {"norad_id": 40069, "name": "METEOR-M 2", "group": "weather", "lat": -14.550151641938193, "lon": -41.91011847749698, "alt_km": 826.2356395361203, "timestamp": "2025-12-03T22:42:32.302284+00:00", "meta": {"OBJECT_NAME": "METEOR-M 2", "OBJECT_ID": "2014-037A", "EPOCH": "2025-12-03T12:38:28.709952", "MEAN_MOTION": 14.21380697, "ECCENTRICITY": 0.0004707, "INCLINATION": 98.4893, "RA_OF_ASC_NODE": 315.4649, "ARG_OF_PERICENTER": 240.5103, "MEAN_ANOMALY": 119.5606, "EPHEMERIS_TYPE": 0, "CLASSIFICATION_TYPE": "U", "NORAD_CAT_ID": 40069, "ELEMENT_SET_NO": 999, "REV_AT_EPOCH": 59152, "BSTAR": 0.00012616, "MEAN_MOTION_DOT": 2.34e-06, "MEAN_MOTION_DDOT": 0}, "tle": {"line1": "1 40069U 14037A   25337.52672118  .00000234  00000+0  12616-3 0  9993", "line2": "2 40069  98.4893 315.4649 0004707 240.5103 119.5606 14.21380697591528"}}, "geometry": {"type": "Point", "coordinates": [-41.91011847749698, -14.550151641938193]}}, {"type": "Feature", "properties": {"norad_id": 40267, "name": "HIMAWARI-8", "group": "weather", "lat": 0.014935557320899035, "lon": -165.69646623402778, "alt_km": 35786.336273650086, "timestamp": "2025-12-03T22:42:32.302295+00:00", "meta": {"OBJECT_NAME": "HIMAWARI-8", "OBJECT_ID": "2014-060A", "EPOCH": "2025-12-03T10:59:59.057952", "MEAN_MOTION": 1.00270674, "ECCENTRICITY": 0.0001242, "INCLINATION": 0.0039, "RA_OF_ASC_NODE": 102.1153, "ARG_OF_PERICENTER": 181.2671, "MEAN_ANOMALY": 94.8417, "EPHEMERIS_TYPE": 0, "CLASSIFICATION_TYPE": "U", "NORAD_CAT_ID": 40267, "ELEMENT_SET_NO": 999, "REV_AT_EPOCH": 4079, "BSTAR": 0, "MEAN_MOTION_DOT": -2.57e-06, "MEAN_MOTION_DDOT": 0}, "tle": {"line1": "1 40267U 14060A   25337.45832243 -.00000257  00000+0  00000+0 0  9994", "line2": "2 40267   0.0039 102.1153 0001242 181.2671  94.8417  1.00270674 40791"}}, "geometry": {"type": "Point", "coordinates": [-165.69646623402778, 0.014935557320899035]}}, {"type": "Feature", "properties": {"norad_id": 40367, "name": "FENGYUN 2G", "group": "weather", "lat": 5.03255991152086, "lon": 153.27823043730183, "alt_km": 35792.2011360195, "timestamp": "2025-12-03T22:42:32.302305+00:00", "meta": {"OBJECT_NAME": "FENGYUN 2G", "OBJECT_ID": "2014-090A", "EPOCH": "2025-12-02T19:23:41.667360", "MEAN_MOTION": 1.00267744, "ECCENTRICITY": 0.00030671, "INCLINATION": 5.141, "RA_OF_ASC_NODE": 75.2124, "ARG_OF_PERICENTER": 193.3464, "MEAN_ANOMALY": 193.9973, "EPHEMERIS_TYPE": 0, "CLASSIFICATION_TYPE": "U", "NORAD_CAT_ID": 40367, "ELEMENT_SET_NO": 999, "REV_AT_EPOCH": 4003, "BSTAR": 0, "MEAN_MOTION_DOT": -2.84e-06, "MEAN_MOTION_DDOT": 0}, "tle": {"line1": "1 40367U 14090A   25336.80812115 -.00000284  00000+0  00000+0 0  9992", "line2": "2 40367   5.1410  75.2124 0003067 193.3464 193.9973  1.00267744 40039"}}, "geometry": {"type": "Point", "coordinates": [153.27823043730183, 5.03255991152086]}}, {"type": "Feature", "properties": {"norad_id": 40732, "name": "METEOSAT-11 (MSG-4)", "group": "weather", "lat": -0.39301937700032824, "lon": 63.136306900985545, "alt_km": 35785.4243793033, "timestamp": "2025-12-03T22:42:32.302317+00:00", "meta": {"OBJECT_NAME": "METEOSAT-11 (MSG-4)", "OBJECT_ID": "2015-034A", "EPOCH": "2025-12-03T06:57:10.948320", "MEAN_MOTION": 1.00277761, "ECCENTRICITY": 2.42e-05, "INCLINATION": 2.7119, "RA_OF_ASC_NODE": 72.0251, "ARG_OF_PERICENTER": 163.8795, "MEAN_ANOMALY": 310.2425, "EPHEMERIS_TYPE": 0, "CLASSIFICATION_TYPE": "U", "NORAD_CAT_ID": 40732, "ELEMENT_SET_NO": 999, "REV_AT_EPOCH": 525, "BSTAR": 0, "MEAN_MOTION_DOT": 8.2e-07, "MEAN_MOTION_DDOT": 0}, "tle": {"line1": "1 40732U 15034A   25337.28971005  .00000082  00000+0  00000+0 0  9999", "line2": "2 40732   2.7119  72.0251 0000242 163.8795 310.2425  1.00277761  5252"}}, "geometry": {"type": "Point", "coordinates": [63.136306900985545, -0.39301937700032824]}}, {"type": "Feature", "properties": {"norad_id": 41105, "name": "ELEKTRO-L 2", "group": "weather", "lat": -3.418905243382598, "lon": 39.31110006312229, "alt_km": 35797.76846887496, "timestamp": "2025-12-03T22:42:32.302328+00:00", "meta": {"OBJECT_NAME": "ELEKTRO-L 2", "OBJECT_ID": "2015-074A", "EPOCH": "2025-12-03T01:42:07.255584", "MEAN_MOTION": 1.00269824, "ECCENTRICITY": 0.00039939, "INCLINATION": 6.1994, "RA_OF_ASC_NODE": 72.9411, "ARG_OF_PERICENTER": 197.267, "MEAN_ANOMALY": 172.9677, "EPHEMERIS_TYPE": 0, "CLASSIFICATION_TYPE": "U", "NORAD_CAT_ID": 41105, "ELEMENT_SET_NO": 999, "REV_AT_EPOCH": 3654, "BSTAR": 0, "MEAN_MOTION_DOT": -1.01e-06, "MEAN_MOTION_DDOT": 0}, "tle": {"line1": "1 41105U 15074A   25337.07091731 -.00000101  00000+0  00000+0 0  9997", "line2": "2 41105   6.1994  72.9411 0003993 197.2670 172.9677  1.00269824 36541"}}, "geometry": {"type": "Point", "coordinates": [39.31110006312229, -3.418905243382598]}}, {"type": "Feature", "properties": {"norad_id": 41752, "name": "INSAT-3DR", "group": "weather", "lat": 0.04851782803920381, "lon": 127.56201629022009, "alt_km": 35834.47460966488, "timestamp": "2025-12-03T22:42:32.302339+00:00", "meta": {"OBJECT_NAME": "INSAT-3DR", "OBJECT_ID": "2016-054A", "EPOCH": "2025-12-03T10:41:00.877056", "MEAN_MOTION": 1.0026958, "ECCENTRICITY": 0.0014469, "INCLINATION": 0.0678, "RA_OF_ASC_NODE": 89.0984, "ARG_OF_PERICENTER": 179.96, "MEAN_ANOMALY": 37.7604, "EPHEMERIS_TYPE": 0, "CLASSIFICATION_TYPE": "U", "NORAD_CAT_ID": 41752, "ELEMENT_SET_NO": 999, "REV_AT_EPOCH": 3385, "BSTAR": 0, "MEAN_MOTION_DOT": -5.9e-07, "MEAN_MOTION_DDOT": 0}, "tle": {"line1": "1 41752U 16054A   25337.44514904 -.00000059  00000+0  00000+0 0  9999", "line2": "2 41752   0.0678  89.0984 0014469 179.9600  37.7604  1.00269580 33853"}}, "geometry": {"type": "Point", "coordinates": [127.56201629022009, 0.04851782803920381]}}]}